start=new Date('2022-01-28T00:00:00.000Z').valueOf();
sats=[{"OBJECT_TYPE":"PAYLOAD","MEAN_ANOMALY":"214.7198","NORAD_CAT_ID":"48554","REF_FRAME":"TEME","OBJECT_ID":"2021-041B","TIME_SYSTEM":"UTC","CLASSIFICATION_TYPE":"U","LAUNCH_DATE":"2021-05-15","ECCENTRICITY":"0.00025660","CENTER_NAME":"EARTH","TLE_LINE2":"2 48554  53.0558  34.2068 0002566 145.3958 214.7198 15.06169679 39229","EPHEMERIS_TYPE":"0","FILE":"3285254","PERIOD":"95.607","TLE_LINE1":"1 48554U 21041B   22027.72484582  .00053333  00000-0  35945-2 0  9992","ELEMENT_SET_NO":"999","ARG_OF_PERICENTER":"145.3958","COUNTRY_CODE":"US","SITE":"AFETR","MEAN_MOTION":"15.06169679","PERIAPSIS":"546.142","MEAN_ELEMENT_THEORY":"SGP4","MEAN_MOTION_DOT":"0.00053333","DECAY_DATE":null,"RA_OF_ASC_NODE":"34.2068","MEAN_MOTION_DDOT":"0.0000000000000","EPOCH":"2022-01-27T17:23:46.678848","GP_ID":"194752835","SEMIMAJOR_AXIS":"6926.055","APOAPSIS":"549.697","OBJECT_NAME":"STARLINK-2139","REV_AT_EPOCH":"3922","RCS_SIZE":"LARGE","BSTAR":"0.00359450000000","INCLINATION":"53.0558"},{"NORAD_CAT_ID":"48555","MEAN_ANOMALY":"287.8773","OBJECT_TYPE":"PAYLOAD","TIME_SYSTEM":"UTC","OBJECT_ID":"2021-041C","REF_FRAME":"TEME","CLASSIFICATION_TYPE":"U","LAUNCH_DATE":"2021-05-15","ECCENTRICITY":"0.00014390","TLE_LINE2":"2 48555  53.0566  44.0804 0001439  72.2373 287.8773 15.06378384 39138","CENTER_NAME":"EARTH","FILE":"3285192","EPHEMERIS_TYPE":"0","PERIOD":"95.594","TLE_LINE1":"1 48555U 21041C   22027.75334976 -.00001575  00000-0 -86900-4 0  9999","SITE":"AFETR","ARG_OF_PERICENTER":"72.2373","COUNTRY_CODE":"US","ELEMENT_SET_NO":"999","MEAN_ELEMENT_THEORY":"SGP4","PERIAPSIS":"546.283","MEAN_MOTION":"15.06378384","MEAN_MOTION_DOT":"-0.00001575","RA_OF_ASC_NODE":"44.0804","MEAN_MOTION_DDOT":"0.0000000000000","DECAY_DATE":null,"EPOCH":"2022-01-27T18:04:49.419264","APOAPSIS":"548.276","OBJECT_NAME":"STARLINK-2145","SEMIMAJOR_AXIS":"6925.415","GP_ID":"194751359","RCS_SIZE":"LARGE","REV_AT_EPOCH":"3913","INCLINATION":"53.0566","BSTAR":"-0.00008690000000"},{"DECAY_DATE":null,"RA_OF_ASC_NODE":"44.1264","MEAN_MOTION_DDOT":"0.0000000000000","EPOCH":"2022-01-27T17:48:52.133184","MEAN_MOTION":"15.06394834","PERIAPSIS":"546.247","MEAN_ELEMENT_THEORY":"SGP4","MEAN_MOTION_DOT":"-0.00000426","REV_AT_EPOCH":"3913","RCS_SIZE":"LARGE","BSTAR":"-0.00000968440000","INCLINATION":"53.0566","GP_ID":"194750865","SEMIMAJOR_AXIS":"6925.364","OBJECT_NAME":"STARLINK-2151","APOAPSIS":"548.212","LAUNCH_DATE":"2021-05-15","CLASSIFICATION_TYPE":"U","ECCENTRICITY":"0.00014190","CENTER_NAME":"EARTH","TLE_LINE2":"2 48556  53.0566  44.1264 0001419  66.8042 293.3097 15.06394834 39139","OBJECT_TYPE":"PAYLOAD","MEAN_ANOMALY":"293.3097","NORAD_CAT_ID":"48556","REF_FRAME":"TEME","OBJECT_ID":"2021-041D","TIME_SYSTEM":"UTC","TLE_LINE1":"1 48556U 21041D   22027.74227006 -.00000426  00000-0 -96844-5 0  9997","PERIOD":"95.592","ELEMENT_SET_NO":"999","COUNTRY_CODE":"US","ARG_OF_PERICENTER":"66.8042","SITE":"AFETR","FILE":"3285192","EPHEMERIS_TYPE":"0"},{"TLE_LINE1":"1 48557U 21041E   22027.74688775  .00001202  00000-0  99582-4 0  9994","PERIOD":"95.593","ELEMENT_SET_NO":"999","COUNTRY_CODE":"US","ARG_OF_PERICENTER":"76.7738","SITE":"AFETR","EPHEMERIS_TYPE":"0","FILE":"3285202","LAUNCH_DATE":"2021-05-15","CLASSIFICATION_TYPE":"U","ECCENTRICITY":"0.00014900","CENTER_NAME":"EARTH","TLE_LINE2":"2 48557  53.0553  34.1115 0001490  76.7738 283.3417 15.06390506 39273","OBJECT_TYPE":"PAYLOAD","MEAN_ANOMALY":"283.3417","NORAD_CAT_ID":"48557","REF_FRAME":"TEME","OBJECT_ID":"2021-041E","TIME_SYSTEM":"UTC","REV_AT_EPOCH":"3927","RCS_SIZE":"LARGE","BSTAR":"0.00009958200000","INCLINATION":"53.0553","GP_ID":"194751461","SEMIMAJOR_AXIS":"6925.378","OBJECT_NAME":"STARLINK-2155","APOAPSIS":"548.275","DECAY_DATE":null,"RA_OF_ASC_NODE":"34.1115","MEAN_MOTION_DDOT":"0.0000000000000","EPOCH":"2022-01-27T17:55:31.101600","MEAN_MOTION":"15.06390506","PERIAPSIS":"546.211","MEAN_ELEMENT_THEORY":"SGP4","MEAN_MOTION_DOT":"0.00001202"},{"BSTAR":"-0.00006505100000","INCLINATION":"53.0548","RCS_SIZE":"LARGE","REV_AT_EPOCH":"3922","GP_ID":"194751553","APOAPSIS":"548.291","OBJECT_NAME":"STARLINK-2166","SEMIMAJOR_AXIS":"6925.374","EPOCH":"2022-01-27T17:50:12.488640","DECAY_DATE":null,"RA_OF_ASC_NODE":"34.1213","MEAN_MOTION_DDOT":"0.0000000000000","MEAN_MOTION_DOT":"-0.00001250","PERIAPSIS":"546.188","MEAN_MOTION":"15.06391623","MEAN_ELEMENT_THEORY":"SGP4","ELEMENT_SET_NO":"999","SITE":"AFETR","ARG_OF_PERICENTER":"74.0005","COUNTRY_CODE":"US","TLE_LINE1":"1 48558U 21041F   22027.74320010 -.00001250  00000-0 -65051-4 0  9999","PERIOD":"95.593","FILE":"3285208","EPHEMERIS_TYPE":"0","CENTER_NAME":"EARTH","TLE_LINE2":"2 48558  53.0548  34.1213 0001518  74.0005 286.1151 15.06391623 39228","ECCENTRICITY":"0.00015180","LAUNCH_DATE":"2021-05-15","CLASSIFICATION_TYPE":"U","REF_FRAME":"TEME","TIME_SYSTEM":"UTC","OBJECT_ID":"2021-041F","OBJECT_TYPE":"PAYLOAD","NORAD_CAT_ID":"48558","MEAN_ANOMALY":"286.1151"},{"MEAN_MOTION_DOT":"0.00001145","PERIAPSIS":"546.202","MEAN_MOTION":"15.06405073","MEAN_ELEMENT_THEORY":"SGP4","EPOCH":"2022-01-27T17:06:22.007808","DECAY_DATE":null,"MEAN_MOTION_DDOT":"0.0000000000000","RA_OF_ASC_NODE":"34.2469","GP_ID":"194751059","OBJECT_NAME":"STARLINK-2167","APOAPSIS":"548.194","SEMIMAJOR_AXIS":"6925.333","BSTAR":"0.00009575900000","INCLINATION":"53.0554","RCS_SIZE":"LARGE","REV_AT_EPOCH":"3926","REF_FRAME":"TEME","TIME_SYSTEM":"UTC","OBJECT_ID":"2021-041G","OBJECT_TYPE":"PAYLOAD","NORAD_CAT_ID":"48559","MEAN_ANOMALY":"289.5913","CENTER_NAME":"EARTH","TLE_LINE2":"2 48559  53.0554  34.2469 0001438  70.5231 289.5913 15.06405073 39265","LAUNCH_DATE":"2021-05-15","ECCENTRICITY":"0.00014380","CLASSIFICATION_TYPE":"U","EPHEMERIS_TYPE":"0","FILE":"3285208","ELEMENT_SET_NO":"999","SITE":"AFETR","ARG_OF_PERICENTER":"70.5231","COUNTRY_CODE":"US","TLE_LINE1":"1 48559U 21041G   22027.71275472  .00001145  00000-0  95759-4 0  9997","PERIOD":"95.592"},{"TLE_LINE2":"2 48560  53.0445 356.9992 0001313  90.1781 269.9396 15.92606110 39763","CENTER_NAME":"EARTH","LAUNCH_DATE":"2021-05-15","CLASSIFICATION_TYPE":"U","ECCENTRICITY":"0.00013130","OBJECT_ID":"2021-041H","TIME_SYSTEM":"UTC","REF_FRAME":"TEME","MEAN_ANOMALY":"269.9396","NORAD_CAT_ID":"48560","OBJECT_TYPE":"PAYLOAD","ARG_OF_PERICENTER":"90.1781","COUNTRY_CODE":"US","SITE":"AFETR","ELEMENT_SET_NO":"999","TLE_LINE1":"1 48560U 21041H   22027.61267927  .00058825  12477-4  17752-3 0  9992","PERIOD":"90.418","EPHEMERIS_TYPE":"0","FILE":"3285208","EPOCH":"2022-01-27T14:42:15.488928","MEAN_MOTION_DDOT":"0.0000124770000","RA_OF_ASC_NODE":"356.9992","DECAY_DATE":null,"MEAN_MOTION_DOT":"0.00058825","MEAN_ELEMENT_THEORY":"SGP4","MEAN_MOTION":"15.92606110","PERIAPSIS":"294.119","INCLINATION":"53.0445","BSTAR":"0.00017752000000","REV_AT_EPOCH":"3976","RCS_SIZE":"LARGE","SEMIMAJOR_AXIS":"6673.130","APOAPSIS":"295.871","OBJECT_NAME":"STARLINK-2173","GP_ID":"194751051"},{"LAUNCH_DATE":"2021-05-15","CLASSIFICATION_TYPE":"U","ECCENTRICITY":"0.00013300","TLE_LINE2":"2 48561  53.0556   3.3500 0001330  98.1432 353.4191 15.06377397 39674","CENTER_NAME":"EARTH","MEAN_ANOMALY":"353.4191","NORAD_CAT_ID":"48561","OBJECT_TYPE":"PAYLOAD","OBJECT_ID":"2021-041J","TIME_SYSTEM":"UTC","REF_FRAME":"TEME","TLE_LINE1":"1 48561U 21041J   22027.91667824  .00025650  00000-0  17357-2 0  9991","PERIOD":"95.594","COUNTRY_CODE":"US","ARG_OF_PERICENTER":"98.1432","SITE":"AFETR","ELEMENT_SET_NO":"999","EPHEMERIS_TYPE":"0","FILE":"3285177","MEAN_MOTION_DDOT":"0.0000000000000","RA_OF_ASC_NODE":"3.3500","DECAY_DATE":null,"EPOCH":"2022-01-27T22:00:00.999936","MEAN_ELEMENT_THEORY":"SGP4","MEAN_MOTION":"15.06377397","PERIAPSIS":"546.362","MEAN_MOTION_DOT":"0.00025650","REV_AT_EPOCH":"3967","RCS_SIZE":"LARGE","INCLINATION":"53.0556","BSTAR":"0.00173570000000","SEMIMAJOR_AXIS":"6925.418","OBJECT_NAME":"STARLINK-2186","APOAPSIS":"548.204","GP_ID":"194750733"},{"FILE":"3284946","EPHEMERIS_TYPE":"0","ELEMENT_SET_NO":"999","SITE":"AFETR","COUNTRY_CODE":"US","ARG_OF_PERICENTER":"96.3077","TLE_LINE1":"1 48562U 21041K   22027.52203663  .00000994  00000-0  85604-4 0  9992","PERIOD":"95.592","REF_FRAME":"TEME","TIME_SYSTEM":"UTC","OBJECT_ID":"2021-041K","OBJECT_TYPE":"PAYLOAD","NORAD_CAT_ID":"48562","MEAN_ANOMALY":"263.8053","CENTER_NAME":"EARTH","TLE_LINE2":"2 48562  53.0563  35.1206 0001234  96.3077 263.8053 15.06400568 38797","LAUNCH_DATE":"2021-05-15","ECCENTRICITY":"0.00012340","CLASSIFICATION_TYPE":"U","GP_ID":"194742878","APOAPSIS":"548.066","OBJECT_NAME":"STARLINK-2187","SEMIMAJOR_AXIS":"6925.347","BSTAR":"0.00008560400000","INCLINATION":"53.0563","RCS_SIZE":"LARGE","REV_AT_EPOCH":"3879","MEAN_MOTION_DOT":"0.00000994","PERIAPSIS":"546.357","MEAN_MOTION":"15.06400568","MEAN_ELEMENT_THEORY":"SGP4","EPOCH":"2022-01-27T12:31:43.964832","DECAY_DATE":null,"RA_OF_ASC_NODE":"35.1206","MEAN_MOTION_DDOT":"0.0000000000000"},{"RCS_SIZE":"LARGE","REV_AT_EPOCH":"3927","BSTAR":"0.00004297600000","INCLINATION":"53.0547","GP_ID":"194751150","OBJECT_NAME":"STARLINK-2188","APOAPSIS":"548.255","SEMIMAJOR_AXIS":"6925.347","DECAY_DATE":null,"RA_OF_ASC_NODE":"34.1443","MEAN_MOTION_DDOT":"0.0000000000000","EPOCH":"2022-01-27T17:44:53.293344","PERIAPSIS":"546.168","MEAN_MOTION":"15.06400600","MEAN_ELEMENT_THEORY":"SGP4","MEAN_MOTION_DOT":"0.00000359","TLE_LINE1":"1 48563U 21041L   22027.73950571  .00000359  00000-0  42976-4 0  9993","PERIOD":"95.592","ELEMENT_SET_NO":"999","SITE":"AFETR","ARG_OF_PERICENTER":"78.5661","COUNTRY_CODE":"US","EPHEMERIS_TYPE":"0","FILE":"3285213","LAUNCH_DATE":"2021-05-15","ECCENTRICITY":"0.00015070","CLASSIFICATION_TYPE":"U","CENTER_NAME":"EARTH","TLE_LINE2":"2 48563  53.0547  34.1443 0001507  78.5661 281.5498 15.06400600 39277","OBJECT_TYPE":"PAYLOAD","NORAD_CAT_ID":"48563","MEAN_ANOMALY":"281.5498","REF_FRAME":"TEME","TIME_SYSTEM":"UTC","OBJECT_ID":"2021-041L"}];
